[Satellite]
VERSION=1.1
NAME=FLOCK 3P-60
NICKNAME=FLOCK 3P-60
TLE1=1 41976U 17008AE  18020.86500395  .00001412  00000-0  61526-4 0  9992
TLE2=2 41976  97.4702  86.5457 0009146 143.7130 216.4729 15.23844709 50843
